C/2018 P5 (PANSTARRS),e,7.2523,216.2392,131.7375,12.80283,0.0215152,0.64243560,16.3707,03/29.0/2021,2000,g 11.0,4.0
# From MPC118841
C/2018 R3 (Lemmon),e,69.7291,324.6406,112.8244,1645,0.0000148,0.99921635,0.0000,06/07.2479/2019,2000,g  9.5,4.0
# From MPC112393
C/2018 R4 (Fuls),e,11.6832,298.4399,345.2877,331.8858,0.0001630,0.99483420,0.0000,03/03.6139/2018,2000,g 14.0,4.0
# From MPC114603
C/2018 R5 (Lemmon),e,103.7481,171.1258,178.0562,22.78545,0.0090619,0.84097097,7.3310,03/29.0/2021,2000,g 11.5,4.0
# From MPEC 2021-FB5
C/2018 U1 (Lemmon),h,11/02.9033/2021,108.2971,75.4803,180.4410,1.001228,4.993217,2000,5.0,4.0
# From MPC114604
C/2018 V1 (Machholz-Fujikawa-Iwamoto),h,12/03.2485/2018,144.0535,128.8781,88.8468,1.000344,0.386393,2000,12.0,4.0
# From MPC115884
C/2018 V2 (ATLAS),e,159.1676,357.0825,318.9499,25.12857,0.0078244,0.90139220,6.6799,03/29.0/2021,2000,g 15.0,4.0
# From MPC114604
P/2018 VN2 (Leonard),e,18.2496,226.5078,138.7453,4.064592,0.1202759,0.47853242,123.5512,03/29.0/2021,2000,g 15.0,4.0
# From MPEC 2021-F20
A/2018 V3,e,164.9782,308.6557,3.5261,122.2017,0.0007296,0.98903032,0.0000,09/08.6827/2019,2000,g 15.7,2.0
# From MPC114604
C/2018 V4 (Africano),e,69.0036,78.3618,359.9401,205.5266,0.0003345,0.98444491,0.0000,03/01.4057/2019,2000,g 12.5,4.0
# From MPC114604
P/2018 V5 (Trujillo-Sheppard),e,10.5858,171.2885,260.6898,8.954103,0.0367850,0.47465364,33.4083,03/29.0/2021,2000,g 12.5,4.0
# From MPEC 2021-F20
C/2018 W1 (Catalina),e,83.2713,233.5961,251.2478,21.70196,0.0097489,0.93730273,6.7004,03/29.0/2021,2000,g 15.5,2.0
# From MPEC 2021-F20
C/2018 W2 (Africano),h,09/05.6284/2019,116.6179,181.8464,157.9757,1.000413,1.455226,2000,9.5,4.0
# From MPEC 2021-F20
C/2018 X2 (Fitzsimmons),e,23.0693,340.8287,162.0520,146.7413,0.0005545,0.98550848,0.0000,07/08.3924/2019,2000,g 12.0,4.0
# From MPC114604
C/2018 X3 (PANSTARRS),e,43.3722,78.9034,359.7516,12.37606,0.0226376,0.78215501,18.5501,03/29.0/2021,2000,g 14.5,4.0
# From MPEC 2021-F20
C/2018 Y1 (Iwamoto),e,160.3992,147.5130,358.0165,140.3670,0.0005927,0.99084626,0.0000,02/06.9898/2019,2000,g 11.5,4.0
# From MPC114605
P/2018 Y2 (Africano),e,11.6826,297.2647,162.3436,7.461233,0.0483602,0.47861648,39.5264,03/29.0/2021,2000,g 11.5,4.0
# From MPC114605
P/2019 A1 (PANSTARRS),e,13.7442,312.3031,150.7808,5.122479,0.0850127,0.56833624,76.5417,03/29.0/2021,2000,g 16.0,4.0
# From MPC114605
P/2019 A2 (ATLAS),e,14.8607,139.4698,324.0452,5.722159,0.0720053,0.38134373,61.8905,03/29.0/2021,2000,g 10.5,4.0
# From MPEC 2021-FB5
P/2019 A3 (PANSTARRS),e,15.3682,31.2993,325.5004,3.146835,0.1765603,0.26561805,171.2010,03/29.0/2021,2000,g 16.0,4.0
# From MPC114605
P/2019 A4 (PANSTARRS),e,13.3197,119.3002,341.8415,2.615389,0.2330235,0.08824887,197.0611,03/29.0/2021,2000,g 15.0,4.0
# From MPEC 2021-F20
C/2019 A5 (PANSTARRS),e,67.5588,146.6272,355.9623,21.57839,0.0098328,0.70699896,6.4849,03/29.0/2021,2000,g  9.5,4.0
# From MPC114605
P/2019 A6 (Lemmon-PANSTARRS),e,33.2314,280.2652,156.2049,5.362369,0.0793723,0.63900786,74.8374,03/29.0/2021,2000,g 16.0,4.0
# From MPC114605
P/2019 A7 (PANSTARRS),e,17.7747,280.5223,119.2505,3.185617,0.1733460,0.16116021,204.0217,03/29.0/2021,2000,g 13.5,4.0
# From MPC115884
P/2019 A8 (PANSTARRS),e,3.2324,127.8062,22.7666,3.335709,0.1617789,0.47080793,145.1952,03/29.0/2021,2000,g 16.0,4.0
# From MPC118842
C/2019 A9 (PANSTARRS),e,84.1788,278.3845,237.9549,39.64767,0.0039480,0.96391270,2.4144,03/29.0/2021,2000,g 15.0,4.0
# From MPC114606
C/2019 B1 (Africano),e,123.3640,290.4348,174.8398,145.0047,0.0005645,0.98898904,0.0000,03/19.7029/2019,2000,g 16.0,4.0
# From MPC115885
P/2019 B2 (Groeller),e,16.8544,176.1986,359.5009,3.867735,0.1295744,0.37304226,85.3210,03/29.0/2021,2000,g 14.5,4.0
# From MPEC 2021-F20
C/2019 B3 (PANSTARRS),h,01/20.1007/2021,66.5363,358.4304,263.9168,1.002348,6.823020,2000,5.5,4.0
# From MPEC 2021-FB5
C/2019 C1 (ATLAS),e,36.0272,212.3875,319.1836,737.4216,0.0000492,0.99107550,0.0000,05/05.5190/2020,2000,g 10.0,4.0
# From MPEC 2021-F20
C/2019 D1 (Flewelling),e,34.0760,231.7144,70.5336,141.8502,0.0005834,0.98886761,0.0000,05/11.8759/2019,2000,g 13.0,4.0
# From MPEC 2021-F20
C/2019 E3 (ATLAS),h,11/12.7942/2023,84.2939,347.2452,280.6180,1.003650,10.314639,2000,2.5,4.0
# From MPEC 2021-FB5
C/2019 F1 (ATLAS-Africano),h,06/22.8298/2021,54.1753,38.7258,251.1238,1.003644,3.595725,2000,5.5,4.0
# From MPEC 2021-F20
C/2019 F2 (ATLAS),e,19.2077,175.6506,11.3768,16.71586,0.0144215,0.86603754,8.1749,03/29.0/2021,2000,g 12.0,4.0
# From MPEC 2021-F20
A/2019 G2,e,159.2066,208.1512,82.6295,647.4811,0.0000598,0.99646205,0.0000,12/09.9706/2019,2000,g 16.5,2.0
# From MPEC 2021-F20
A/2019 G3,e,156.8161,49.7970,161.9091,17.19384,0.0138243,0.83390594,11.7002,03/29.0/2021,2000,g 17.1,2.0
# From MPC118094
A/2019 G4,h,09/16.0771/2018,138.3866,130.4642,287.8823,1.001669,5.858076,2000,13.0,2.0
# From MPC114607
P/2019 GG21 (PANSTARRS),e,6.0840,340.5749,208.5382,7.474123,0.0482352,0.47291478,33.1877,03/29.0/2021,2000,g 12.0,4.0
# From MPEC 2021-F20
C/2019 H1 (NEOWISE),e,104.5674,269.1999,19.3298,239.3610,0.0002661,0.99228758,0.0000,04/27.8231/2019,2000,g 15.5,4.0
# From MPEC 2021-F20
C/2019 J1 (Lemmon),e,24.5506,98.0927,167.7891,69.66695,0.0016950,0.96440278,1.2202,03/29.0/2021,2000,g 12.0,4.0
# From MPEC 2021-F20
C/2019 J2 (Palomar),e,105.1577,25.4845,98.7179,658.5632,0.0000583,0.99737723,0.0000,07/19.7082/2019,2000,g 13.0,4.0
# From MPC117071
C/2019 J3 (ATLAS),h,08/01.9828/2019,131.4103,270.5289,16.5912,1.000330,2.374425,2000,13.5,4.0
# From MPEC 2021-F20
C/2019 JU6 (ATLAS),e,148.3085,21.7526,94.9136,296.0789,0.0001935,0.99308969,0.0000,05/31.8960/2019,2000,g 14.5,4.0
# From MPEC 2021-F20
C/2019 K1 (ATLAS),h,02/12.9931/2020,87.1374,73.3771,265.7139,1.000040,2.012639,2000,10.0,4.0
# From MPEC 2021-F20
C/2019 K4 (Ye),e,105.3012,180.1601,139.7746,1479,0.0000173,0.99847226,0.0000,06/16.2683/2019,2000,g 12.5,4.0
# From MPEC 2021-F20
C/2019 K5 (Young),e,15.3156,177.1558,174.9819,158.5544,0.0004937,0.98716135,0.0000,06/22.8962/2019,2000,g 13.0,4.0
# From MPEC 2021-F20
C/2019 K6 (PANSTARRS),e,132.3793,42.9465,187.6349,1754,0.0000134,0.99775955,0.0000,05/20.2704/2020,2000,g 11.5,4.0
# From MPEC 2021-FB5
C/2019 K7 (Smith),e,103.5420,307.9291,27.3148,60269,0.0000001,0.99992574,0.0000,06/17.0108/2020,2000,g  6.0,4.0
# From MPEC 2021-F20
C/2019 K8 (ATLAS),e,93.2192,291.0452,85.3731,2458,0.0000081,0.99869994,0.0000,07/21.4159/2019,2000,g 11.5,4.0
# From MPEC 2021-F20
C/2019 L1 (PANSTARRS),e,9.9921,254.4145,49.9628,9.837137,0.0319449,0.70604342,19.0272,03/29.0/2021,2000,g 13.5,4.0
# From MPC115886
C/2019 L2 (NEOWISE),e,152.1856,12.5761,18.7499,24.85115,0.0079558,0.93478018,5.7858,03/29.0/2021,2000,g 16.0,4.0
# From MPEC 2021-FB5
C/2019 L3 (ATLAS),h,01/09.7000/2022,48.3657,290.7868,171.6270,1.001055,3.554302,2000,4.5,4.0
# From MPEC 2020-K19
P/2019 LM4 (Palomar),e,36.3889,72.8599,68.3921,5.715689,0.0721276,0.58483246,46.8755,03/29.0/2021,2000,g  9.5,4.0
# From MPC118095
C/2019 LB7 (Kleyna),e,164.2912,3.8996,336.4818,34.71358,0.0048190,0.92845915,3.5329,03/29.0/2021,2000,g 17.0,4.0
# From MPC118843
P/2019 M2 (ATLAS),e,12.2820,307.5968,332.5719,3.026872,0.1871600,0.64828113,120.7864,03/29.0/2021,2000,g 21.2,4.0
# From MPEC 2021-F20
C/2019 M3 (ATLAS),h,01/02.5644/2019,99.4705,154.9029,87.9192,1.001036,2.418883,2000,12.2,4.0
# From MPEC 2021-FB5
C/2019 N1 (ATLAS),e,82.4283,13.5740,193.4466,14312,0.0000006,0.99988089,0.0000,12/01.8056/2020,2000,g  7.5,4.0
# From MPEC 2021-F20
A/2019 O2,e,93.2876,48.3120,129.6620,57.34339,0.0022698,0.83114278,358.3209,03/29.0/2021,2000,g  9.5,2.0
# From MPEC 2021-FB5
C/2019 O3 (Palomar),h,03/08.0106/2021,89.8153,300.3811,60.0515,1.002342,8.819468,2000,3.5,4.0
# From MPEC 2021-F20
A/2019 O4,e,115.0876,354.9154,61.8368,32.88670,0.0052261,0.88916330,2.1579,03/29.0/2021,2000,g 15.5,2.0
# From MPEC 2021-F20
C/2019 Q1 (Lemmon),h,07/20.2263/2020,155.7268,42.3999,56.0439,1.001639,4.997821,2000,8.5,4.0
# From MPC117072
A/2019 Q2,e,159.0213,188.0366,176.2956,57.19184,0.0022788,0.97801978,0.0000,07/22.2508/2019,2000,g 18.0,2.0
# From MPC117072
C/2019 Q3 (PANSTARRS),h,08/21.4156/2018,65.5263,151.3233,152.6961,1.003962,7.254437,2000,8.5,4.0
# From MPC117072
P/2019 S2 (PANSTARRS),e,10.4727,93.1314,216.8987,4.736850,0.0956026,0.20675783,73.2520,03/29.0/2021,2000,g 13.5,4.0
# From MPC118096
P/2019 S3 (PANSTARRS),e,8.6941,150.1599,212.9839,3.414840,0.1561883,0.47097844,90.7061,03/29.0/2021,2000,g 18.3,4.0
# From MPEC 2021-F20
C/2019 S4 (Lemmon),e,92.0265,63.1638,71.3642,234.6419,0.0002742,0.98533074,0.0000,04/07.9526/2020,2000,g 11.0,4.0
# From MPEC 2021-F20
A/2019 T1,e,120.8698,6.9532,91.0374,38.25704,0.0041652,0.88808327,0.3069,03/29.0/2021,2000,g 13.0,2.0
# From MPEC 2021-F20
C/2019 T2 (Lemmon),e,111.4887,155.6423,239.3846,2045,0.0000107,0.99870604,0.0000,04/22.2706/2021,2000,g  9.0,4.0
# From MPEC 2021-F20
C/2019 T3 (ATLAS),e,121.8622,139.5208,112.2786,3325,0.0000051,0.99821147,0.0000,03/02.7234/2021,2000,g  6.8,4.0
# From MPEC 2021-FB5
C/2019 T4 (ATLAS),e,53.6195,199.9508,351.2161,1029,0.0000299,0.99587684,0.0000,06/09.2642/2022,2000,g  5.0,4.0
# From MPC119998
P/2019 T5 (ATLAS),e,33.4297,247.6812,189.5880,8.006123,0.0435082,0.80917363,26.3609,03/29.0/2021,2000,g 15.0,4.0
# From MPC119998
P/2019 T6 (PANSTARRS),e,18.6946,71.2977,328.9067,5.434340,0.0778008,0.62253638,39.4604,03/29.0/2021,2000,g 15.5,4.0
# From MPC118096
P/2019 U4 (PANSTARRS),e,11.6924,200.0170,180.9707,3.520514,0.1492090,0.47552516,83.1920,03/29.0/2021,2000,g 19.0,4.0
# From MPEC 2021-FB5
A/2019 U5,h,03/30.2209/2023,113.5178,2.6498,181.5710,1.000548,3.622349,2000,10.0,2.0
# From MPEC 2021-F20
C/2019 U6 (Lemmon),e,60.9994,235.6981,329.6586,413.2920,0.0001173,0.99778789,0.0000,06/18.8060/2020,2000,g 10.0,4.0
# From MPC119998
C/2019 V1 (Borisov),e,61.8627,83.2001,51.1901,1843,0.0000125,0.99831933,0.0000,07/16.5178/2020,2000,g 11.0,4.0
# From MPEC 2021-FB5
P/2019 V2 (Groeller),e,11.8039,189.1795,336.0141,7.514486,0.0478470,0.33187671,7.6630,03/29.0/2021,2000,g 10.0,4.0
# From MPC119998
